start=new Date('2023-02-22T00:00:00.000Z').valueOf();
sats=[{"NORAD_CAT_ID":"52478","OBJECT_TYPE":"PAYLOAD","MEAN_MOTION_DDOT":"0.0000000000000","REV_AT_EPOCH":"4560","LAUNCH_DATE":"2022-05-06","ELEMENT_SET_NO":"999","SITE":"AFETR","CENTER_NAME":"EARTH","COUNTRY_CODE":"US","EPHEMERIS_TYPE":"0","MEAN_ELEMENT_THEORY":"SGP4","EPOCH":"2023-02-21T14:14:43.598688","RA_OF_ASC_NODE":"11.5113","INCLINATION":"53.2148","BSTAR":"-0.00004423200000","OBJECT_NAME":"STARLINK-3825","SEMIMAJOR_AXIS":"6917.850","MEAN_ANOMALY":"231.2014","FILE":"3819803","CLASSIFICATION_TYPE":"U","ECCENTRICITY":"0.00004230","OBJECT_ID":"2022-049AD","GP_ID":"226274883","MEAN_MOTION_DOT":"-0.00000992","TLE_LINE1":"1 52478U 22049AD  23052.59356017 -.00000992  00000-0 -44232-4 0  9992","REF_FRAME":"TEME","PERIAPSIS":"539.423","APOAPSIS":"540.008","DECAY_DATE":null,"TIME_SYSTEM":"UTC","RCS_SIZE":"LARGE","PERIOD":"95.437","MEAN_MOTION":"15.08849794","ARG_OF_PERICENTER":"128.9015","TLE_LINE2":"2 52478  53.2148  11.5113 0000423 128.9015 231.2014 15.08849794 45601"},{"NORAD_CAT_ID":"52479","OBJECT_TYPE":"PAYLOAD","MEAN_MOTION_DDOT":"0.0000000000000","REV_AT_EPOCH":"4461","ELEMENT_SET_NO":"999","LAUNCH_DATE":"2022-05-06","SITE":"AFETR","CENTER_NAME":"EARTH","COUNTRY_CODE":"US","EPHEMERIS_TYPE":"0","MEAN_ELEMENT_THEORY":"SGP4","EPOCH":"2023-02-21T06:40:19.657920","RA_OF_ASC_NODE":"2.9299","INCLINATION":"53.2190","SEMIMAJOR_AXIS":"6917.879","BSTAR":"-0.00000197930000","OBJECT_NAME":"STARLINK-3878","FILE":"3820772","MEAN_ANOMALY":"260.5783","CLASSIFICATION_TYPE":"U","ECCENTRICITY":"0.00015200","OBJECT_ID":"2022-049AE","MEAN_MOTION_DOT":"-0.00000319","GP_ID":"226299150","TLE_LINE1":"1 52479U 22049AE  23052.27800530 -.00000319  00000-0 -19793-5 0  9990","DECAY_DATE":null,"APOAPSIS":"540.795","PERIAPSIS":"538.692","REF_FRAME":"TEME","TIME_SYSTEM":"UTC","RCS_SIZE":"LARGE","PERIOD":"95.438","ARG_OF_PERICENTER":"99.5381","MEAN_MOTION":"15.08840588","TLE_LINE2":"2 52479  53.2190   2.9299 0001520  99.5381 260.5783 15.08840588 44616"},{"MEAN_MOTION":"15.08849443","ARG_OF_PERICENTER":"88.1698","TLE_LINE2":"2 52480  53.2168  11.5385 0001325  88.1698 271.9446 15.08849443 44366","RCS_SIZE":"LARGE","PERIOD":"95.437","REF_FRAME":"TEME","PERIAPSIS":"538.800","APOAPSIS":"540.633","DECAY_DATE":null,"TIME_SYSTEM":"UTC","GP_ID":"226275881","MEAN_MOTION_DOT":"0.00004534","TLE_LINE1":"1 52480U 22049AF  23052.58988237  .00004534  00000-0  30269-3 0  9997","ECCENTRICITY":"0.00013250","OBJECT_ID":"2022-049AF","CLASSIFICATION_TYPE":"U","BSTAR":"0.00030269000000","OBJECT_NAME":"STARLINK-3839","SEMIMAJOR_AXIS":"6917.852","FILE":"3819803","MEAN_ANOMALY":"271.9446","INCLINATION":"53.2168","EPOCH":"2023-02-21T14:09:25.836768","RA_OF_ASC_NODE":"11.5385","EPHEMERIS_TYPE":"0","MEAN_ELEMENT_THEORY":"SGP4","COUNTRY_CODE":"US","SITE":"AFETR","CENTER_NAME":"EARTH","LAUNCH_DATE":"2022-05-06","ELEMENT_SET_NO":"999","MEAN_MOTION_DDOT":"0.0000000000000","REV_AT_EPOCH":"4436","NORAD_CAT_ID":"52480","OBJECT_TYPE":"PAYLOAD"},{"EPHEMERIS_TYPE":"0","MEAN_ELEMENT_THEORY":"SGP4","COUNTRY_CODE":"US","INCLINATION":"53.2171","EPOCH":"2023-02-21T14:20:01.948128","RA_OF_ASC_NODE":"11.5068","MEAN_MOTION_DDOT":"0.0000000000000","REV_AT_EPOCH":"4560","NORAD_CAT_ID":"52481","OBJECT_TYPE":"PAYLOAD","SITE":"AFETR","CENTER_NAME":"EARTH","LAUNCH_DATE":"2022-05-06","ELEMENT_SET_NO":"999","PERIAPSIS":"539.033","APOAPSIS":"540.432","REF_FRAME":"TEME","DECAY_DATE":null,"TIME_SYSTEM":"UTC","GP_ID":"226274634","MEAN_MOTION_DOT":"0.00005375","TLE_LINE1":"1 52481U 22049AG  23052.59724477  .00005375  00000-0  35551-3 0  9996","MEAN_MOTION":"15.08844260","ARG_OF_PERICENTER":"95.0819","TLE_LINE2":"2 52481  53.2171  11.5068 0001011  95.0819 265.0288 15.08844260 45601","RCS_SIZE":"LARGE","PERIOD":"95.437","CLASSIFICATION_TYPE":"U","OBJECT_NAME":"STARLINK-3842","BSTAR":"0.00035551000000","SEMIMAJOR_AXIS":"6917.867","FILE":"3819803","MEAN_ANOMALY":"265.0288","ECCENTRICITY":"0.00010110","OBJECT_ID":"2022-049AG"},{"OBJECT_TYPE":"PAYLOAD","NORAD_CAT_ID":"52482","REV_AT_EPOCH":"4454","MEAN_MOTION_DDOT":"0.0000000000000","ELEMENT_SET_NO":"999","LAUNCH_DATE":"2022-05-06","CENTER_NAME":"EARTH","SITE":"AFETR","COUNTRY_CODE":"US","MEAN_ELEMENT_THEORY":"SGP4","EPHEMERIS_TYPE":"0","RA_OF_ASC_NODE":"0.2861","EPOCH":"2023-02-21T20:48:12.018528","INCLINATION":"53.2192","FILE":"3821329","MEAN_ANOMALY":"272.8057","SEMIMAJOR_AXIS":"6917.862","BSTAR":"0.00028699000000","OBJECT_NAME":"STARLINK-3813","CLASSIFICATION_TYPE":"U","OBJECT_ID":"2022-049AH","ECCENTRICITY":"0.00015820","TLE_LINE1":"1 52482U 22049AH  23052.86680577  .00004283  00000-0  28699-3 0  9991","MEAN_MOTION_DOT":"0.00004283","GP_ID":"226333056","TIME_SYSTEM":"UTC","DECAY_DATE":null,"APOAPSIS":"540.821","PERIAPSIS":"538.632","REF_FRAME":"TEME","PERIOD":"95.437","RCS_SIZE":"LARGE","TLE_LINE2":"2 52482  53.2192   0.2861 0001582  87.3116 272.8057 15.08846093 44546","ARG_OF_PERICENTER":"87.3116","MEAN_MOTION":"15.08846093"},{"COUNTRY_CODE":"US","MEAN_ELEMENT_THEORY":"SGP4","EPHEMERIS_TYPE":"0","RA_OF_ASC_NODE":"0.2372","EPOCH":"2023-02-21T21:04:05.869344","INCLINATION":"53.2195","OBJECT_TYPE":"PAYLOAD","NORAD_CAT_ID":"52483","REV_AT_EPOCH":"4578","MEAN_MOTION_DDOT":"0.0000000000000","LAUNCH_DATE":"2022-05-06","ELEMENT_SET_NO":"999","CENTER_NAME":"EARTH","SITE":"AFETR","TLE_LINE1":"1 52483U 22049AJ  23052.87784571  .00010554  00000-0  68021-3 0  9993","GP_ID":"226331804","MEAN_MOTION_DOT":"0.00010554","TIME_SYSTEM":"UTC","PERIAPSIS":"538.866","APOAPSIS":"540.619","REF_FRAME":"TEME","DECAY_DATE":null,"PERIOD":"95.437","RCS_SIZE":"LARGE","TLE_LINE2":"2 52483  53.2195   0.2372 0001267  96.8732 263.2404 15.08840950 45789","MEAN_MOTION":"15.08840950","ARG_OF_PERICENTER":"96.8732","MEAN_ANOMALY":"263.2404","FILE":"3821329","BSTAR":"0.00068021000000","OBJECT_NAME":"STARLINK-3875","SEMIMAJOR_AXIS":"6917.877","CLASSIFICATION_TYPE":"U","OBJECT_ID":"2022-049AJ","ECCENTRICITY":"0.00012670"},{"TLE_LINE2":"2 52484  53.2171  11.5536 0000707 136.0472 224.0577 15.08848189 44368","ARG_OF_PERICENTER":"136.0472","MEAN_MOTION":"15.08848189","PERIOD":"95.437","RCS_SIZE":"LARGE","TIME_SYSTEM":"UTC","DECAY_DATE":null,"APOAPSIS":"540.209","PERIAPSIS":"539.231","REF_FRAME":"TEME","TLE_LINE1":"1 52484U 22049AK  23052.58620162  .00013268  00000-0  84994-3 0  9999","MEAN_MOTION_DOT":"0.00013268","GP_ID":"226276381","OBJECT_ID":"2022-049AK","ECCENTRICITY":"0.00007070","CLASSIFICATION_TYPE":"U","MEAN_ANOMALY":"224.0577","FILE":"3819803","SEMIMAJOR_AXIS":"6917.855","BSTAR":"0.00084994000000","OBJECT_NAME":"STARLINK-3887","INCLINATION":"53.2171","RA_OF_ASC_NODE":"11.5536","EPOCH":"2023-02-21T14:04:07.819968","MEAN_ELEMENT_THEORY":"SGP4","EPHEMERIS_TYPE":"0","COUNTRY_CODE":"US","CENTER_NAME":"EARTH","SITE":"AFETR","ELEMENT_SET_NO":"999","LAUNCH_DATE":"2022-05-06","REV_AT_EPOCH":"4436","MEAN_MOTION_DDOT":"0.0000000000000","OBJECT_TYPE":"PAYLOAD","NORAD_CAT_ID":"52484"},{"COUNTRY_CODE":"US","EPHEMERIS_TYPE":"0","MEAN_ELEMENT_THEORY":"SGP4","EPOCH":"2023-02-21T20:53:29.939424","RA_OF_ASC_NODE":"0.2680","INCLINATION":"53.2191","NORAD_CAT_ID":"52485","OBJECT_TYPE":"PAYLOAD","MEAN_MOTION_DDOT":"0.0000000000000","REV_AT_EPOCH":"4454","ELEMENT_SET_NO":"999","LAUNCH_DATE":"2022-05-06","SITE":"AFETR","CENTER_NAME":"EARTH","MEAN_MOTION_DOT":"0.00015778","GP_ID":"226332806","TLE_LINE1":"1 52485U 22049AL  23052.87048541  .00015778  00000-0  10068-2 0  9995","DECAY_DATE":null,"PERIAPSIS":"538.209","REF_FRAME":"TEME","APOAPSIS":"541.193","TIME_SYSTEM":"UTC","RCS_SIZE":"LARGE","PERIOD":"95.437","ARG_OF_PERICENTER":"103.1203","MEAN_MOTION":"15.08854552","TLE_LINE2":"2 52485  53.2191   0.2680 0002157 103.1203 257.0030 15.08854552 44545","SEMIMAJOR_AXIS":"6917.836","BSTAR":"0.00100680000000","OBJECT_NAME":"STARLINK-3913","FILE":"3821329","MEAN_ANOMALY":"257.0030","CLASSIFICATION_TYPE":"U","ECCENTRICITY":"0.00021570","OBJECT_ID":"2022-049AL"},{"ECCENTRICITY":"0.00012960","OBJECT_ID":"2022-049AM","CLASSIFICATION_TYPE":"U","SEMIMAJOR_AXIS":"6917.843","BSTAR":"0.00042175000000","OBJECT_NAME":"STARLINK-3918","FILE":"3821329","MEAN_ANOMALY":"253.7813","ARG_OF_PERICENTER":"106.3322","MEAN_MOTION":"15.08852201","TLE_LINE2":"2 52486  53.2171  10.3985 0001296 106.3322 253.7813 15.08852201 44400","RCS_SIZE":"LARGE","PERIOD":"95.437","DECAY_DATE":null,"PERIAPSIS":"538.812","REF_FRAME":"TEME","APOAPSIS":"540.605","TIME_SYSTEM":"UTC","MEAN_MOTION_DOT":"0.00006433","GP_ID":"226333556","TLE_LINE1":"1 52486U 22049AM  23052.84379840  .00006433  00000-0  42175-3 0  9995","SITE":"AFETR","CENTER_NAME":"EARTH","ELEMENT_SET_NO":"999","LAUNCH_DATE":"2022-05-06","MEAN_MOTION_DDOT":"0.0000000000000","REV_AT_EPOCH":"4440","NORAD_CAT_ID":"52486","OBJECT_TYPE":"PAYLOAD","INCLINATION":"53.2171","EPOCH":"2023-02-21T20:15:04.181760","RA_OF_ASC_NODE":"10.3985","EPHEMERIS_TYPE":"0","MEAN_ELEMENT_THEORY":"SGP4","COUNTRY_CODE":"US"},{"FILE":"3821329","MEAN_ANOMALY":"263.8215","BSTAR":"0.00025310000000","OBJECT_NAME":"STARLINK-3902","SEMIMAJOR_AXIS":"6917.867","CLASSIFICATION_TYPE":"U","OBJECT_ID":"2022-049AN","ECCENTRICITY":"0.00014390","TLE_LINE1":"1 52487U 22049AN  23052.81529903  .00003743  00000-0  25310-3 0  9993","GP_ID":"226332304","MEAN_MOTION_DOT":"0.00003743","TIME_SYSTEM":"UTC","PERIAPSIS":"538.736","REF_FRAME":"TEME","APOAPSIS":"540.727","DECAY_DATE":null,"PERIOD":"95.437","RCS_SIZE":"LARGE","TLE_LINE2":"2 52487  53.2194   0.6224 0001439  96.2942 263.8215 15.08844447 45770","MEAN_MOTION":"15.08844447","ARG_OF_PERICENTER":"96.2942","OBJECT_TYPE":"PAYLOAD","NORAD_CAT_ID":"52487","REV_AT_EPOCH":"4577","MEAN_MOTION_DDOT":"0.0000000000000","LAUNCH_DATE":"2022-05-06","ELEMENT_SET_NO":"999","CENTER_NAME":"EARTH","SITE":"AFETR","COUNTRY_CODE":"US","MEAN_ELEMENT_THEORY":"SGP4","EPHEMERIS_TYPE":"0","RA_OF_ASC_NODE":"0.6224","EPOCH":"2023-02-21T19:34:01.836192","INCLINATION":"53.2194"}];
